ASTROCAST 0.1           
1 43798U 18099AS  26196.14134627  .00023658  00000+0  40186-3 0  9995
2 43798  97.4371 275.5483 0005580 129.5554 230.6191 15.51450532418766
ASTROCAST-0402          
1 55109U 23001DE  26196.18787608  .00006096  00000+0  21909-3 0  9999
2 55109  97.5588 289.8136 0006447 134.5247 225.6521 15.29007956148817
ASTROCAST-0401          
1 55110U 23001DF  26196.07247411  .00009901  00000+0  35871-3 0  9993
2 55110  97.5574 289.5019 0009523 108.6507 251.5767 15.28545722195460
ASTROCAST-0403          
1 55111U 23001DG  26195.24051674  .00013454  00000+0  43315-3 0  9996
2 55111  97.5629 289.9716 0004625 215.2571 144.8365 15.32330793148702
ASTROCAST-0404          
1 55112U 23001DH  26195.82880137  .00004465  00000+0  16218-3 0  9999
2 55112  97.5675 290.3817 0005082 244.7189 115.3524 15.28820279148755
